[{"OBJECT_NAME":"CSTP 1.2 (STC 1.2)","OBJECT_ID":"2023-091W","EPOCH":"2026-03-09T23:12:27.821952","MEAN_MOTION":15.2718076,"ECCENTRICITY":0.00204388,"INCLINATION":97.5258,"RA_OF_ASC_NODE":134.3262,"ARG_OF_PERICENTER":84.9592,"MEAN_ANOMALY":275.3979,"EPHEMERIS_TYPE":0,"CLASSIFICATION_TYPE":"U","NORAD_CAT_ID":57186,"ELEMENT_SET_NO":999,"REV_AT_EPOCH":14930,"BSTAR":0.00043035718,"MEAN_MOTION_DOT":0.00011466,"MEAN_MOTION_DDOT":0},{"OBJECT_NAME":"STARLINK-35625","OBJECT_ID":"2025-237AC","EPOCH":"2026-03-09T04:24:53.508096","MEAN_MOTION":15.30186526,"ECCENTRICITY":0.0001293,"INCLINATION":53.1615,"RA_OF_ASC_NODE":41.9345,"ARG_OF_PERICENTER":87.9908,"MEAN_ANOMALY":272.1241,"EPHEMERIS_TYPE":0,"CLASSIFICATION_TYPE":"U","NORAD_CAT_ID":66140,"ELEMENT_SET_NO":999,"REV_AT_EPOCH":2253,"BSTAR":0.0008586587,"MEAN_MOTION_DOT":0.00025147,"MEAN_MOTION_DDOT":0}]
